CSS (TIANHE)            
1 48274U 21035A   24147.17714756  .00045269  00000+0  43967-3 0  9999
2 48274  41.4667 217.3898 0002354  73.5882 286.5217 15.65503093175652
